{
  "type": "FeatureCollection",
  "features": [
    {
      "type": "Feature",
      "properties": {
        "norad_id": 34637,
        "name": "COSMOS 2251 DEB",
        "group": "cosmos-2251-debris",
        "lat": 6.871209871592551,
        "lon": 86.92173974524205,
        "alt_km": 723.1082718325924,
        "timestamp": "2025-12-21T05:44:51.982235+00:00",
        "meta_object_name": "COSMOS 2251 DEB",
        "meta_object_id": "1993-036XJ",
        "meta_epoch": "2025-12-20T17:15:15.768864",
        "meta_mean_motion": 14.60159764,
        "meta_eccentricity": 0.00491538,
        "meta_inclination": 74.0498,
        "meta_ra_of_asc_node": 85.9391,
        "meta_arg_of_pericenter": 154.3683,
        "meta_mean_anomaly": 357.9814,
        "meta_ephemeris_type": 0,
        "meta_classification_type": "U",
        "meta_norad_cat_id": 34637,
        "meta_element_set_no": 999,
        "meta_rev_at_epoch": 88643,
        "meta_bstar": 0.00053669704,
        "meta_mean_motion_dot": 2.599e-05,
        "meta_mean_motion_ddot": 0,
        "tle_line1": "1 34637U 93036XJ  25354.71893251  .00002599  00000+0  53670-3 0  9997",
        "tle_line2": "2 34637  74.0498  85.9391 0049153 154.3683 357.9814 14.60159764886433"
      },
      "geometry": {
        "type": "Point",
        "coordinates": [
          86.92173974524205,
          6.871209871592551
        ]
      }
    },
    {
      "type": "Feature",
      "properties": {
        "norad_id": 34641,
        "name": "COSMOS 2251 DEB",
        "group": "cosmos-2251-debris",
        "lat": 63.512521514726544,
        "lon": -150.14324858853035,
        "alt_km": 721.5806368906342,
        "timestamp": "2025-12-21T05:44:51.982245+00:00",
        "meta_object_name": "COSMOS 2251 DEB",
        "meta_object_id": "1993-036XN",
        "meta_epoch": "2025-12-20T23:26:26.882592",
        "meta_mean_motion": 14.52056091,
        "meta_eccentricity": 0.0019002,
        "meta_inclination": 73.8395,
        "meta_ra_of_asc_node": 65.9424,
        "meta_arg_of_pericenter": 338.6846,
        "meta_mean_anomaly": 199.2254,
        "meta_ephemeris_type": 0,
        "meta_classification_type": "U",
        "meta_norad_cat_id": 34641,
        "meta_element_set_no": 999,
        "meta_rev_at_epoch": 88375,
        "meta_bstar": 0.0005579688,
        "meta_mean_motion_dot": 2.233e-05,
        "meta_mean_motion_ddot": 0,
        "tle_line1": "1 34641U 93036XN  25354.97670003  .00002233  00000+0  55797-3 0  9995",
        "tle_line2": "2 34641  73.8395  65.9424 0019002 338.6846 199.2254 14.52056091883751"
      },
      "geometry": {
        "type": "Point",
        "coordinates": [
          -150.14324858853035,
          63.512521514726544
        ]
      }
    },
    {
      "type": "Feature",
      "properties": {
        "norad_id": 34642,
        "name": "COSMOS 2251 DEB",
        "group": "cosmos-2251-debris",
        "lat": 10.896868671668877,
        "lon": -31.755322197858728,
        "alt_km": 996.2091022804025,
        "timestamp": "2025-12-21T05:44:51.982256+00:00",
        "meta_object_name": "COSMOS 2251 DEB",
        "meta_object_id": "1993-036XP",
        "meta_epoch": "2025-12-19T16:47:36.276288",
        "meta_mean_motion": 13.98991151,
        "meta_eccentricity": 0.02066861,
        "meta_inclination": 74.0042,
        "meta_ra_of_asc_node": 327.7452,
        "meta_arg_of_pericenter": 145.9553,
        "meta_mean_anomaly": 35.4618,
        "meta_ephemeris_type": 0,
        "meta_classification_type": "U",
        "meta_norad_cat_id": 34642,
        "meta_element_set_no": 999,
        "meta_rev_at_epoch": 85390,
        "meta_bstar": 0.00059559157,
        "meta_mean_motion_dot": 1.011e-05,
        "meta_mean_motion_ddot": 0,
        "tle_line1": "1 34642U 93036XP  25353.69972542  .00001011  00000+0  59559-3 0  9990",
        "tle_line2": "2 34642  74.0042 327.7452 0206686 145.9553  35.4618 13.98991151853907"
      },
      "geometry": {
        "type": "Point",
        "coordinates": [
          -31.755322197858728,
          10.896868671668877
        ]
      }
    },
    {
      "type": "Feature",
      "properties": {
        "norad_id": 34671,
        "name": "COSMOS 2251 DEB",
        "group": "cosmos-2251-debris",
        "lat": -45.00762875466818,
        "lon": 101.23756962284705,
        "alt_km": 679.9090463678713,
        "timestamp": "2025-12-21T05:44:51.982266+00:00",
        "meta_object_name": "COSMOS 2251 DEB",
        "meta_object_id": "1993-036XR",
        "meta_epoch": "2025-12-20T10:36:59.077152",
        "meta_mean_motion": 14.67055876,
        "meta_eccentricity": 0.00109075,
        "meta_inclination": 74.027,
        "meta_ra_of_asc_node": 119.4247,
        "meta_arg_of_pericenter": 200.8198,
        "meta_mean_anomaly": 223.5005,
        "meta_ephemeris_type": 0,
        "meta_classification_type": "U",
        "meta_norad_cat_id": 34671,
        "meta_element_set_no": 999,
        "meta_rev_at_epoch": 88410,
        "meta_bstar": 0.0010403942,
        "meta_mean_motion_dot": 5.817e-05,
        "meta_mean_motion_ddot": 0,
        "tle_line1": "1 34671U 93036XR  25354.44235043  .00005817  00000+0  10404-2 0  9997",
        "tle_line2": "2 34671  74.0270 119.4247 0010907 200.8198 223.5005 14.67055876884103"
      },
      "geometry": {
        "type": "Point",
        "coordinates": [
          101.23756962284705,
          -45.00762875466818
        ]
      }
    },
    {
      "type": "Feature",
      "properties": {
        "norad_id": 34672,
        "name": "COSMOS 2251 DEB",
        "group": "cosmos-2251-debris",
        "lat": -72.80705248506311,
        "lon": -137.7339558469059,
        "alt_km": 775.3732582926195,
        "timestamp": "2025-12-21T05:44:51.982276+00:00",
        "meta_object_name": "COSMOS 2251 DEB",
        "meta_object_id": "1993-036XS",
        "meta_epoch": "2025-12-18T13:28:46.255872",
        "meta_mean_motion": 14.36417673,
        "meta_eccentricity": 0.00241418,
        "meta_inclination": 74.0338,
        "meta_ra_of_asc_node": 294.8922,
        "meta_arg_of_pericenter": 5.7391,
        "meta_mean_anomaly": 109.133,
        "meta_ephemeris_type": 0,
        "meta_classification_type": "U",
        "meta_norad_cat_id": 34672,
        "meta_element_set_no": 999,
        "meta_rev_at_epoch": 65261,
        "meta_bstar": 0.00020838077,
        "meta_mean_motion_dot": 5.86e-06,
        "meta_mean_motion_ddot": 0,
        "tle_line1": "1 34672U 93036XS  25352.56164648  .00000586  00000+0  20838-3 0  9992",
        "tle_line2": "2 34672  74.0338 294.8922 0024141   5.7391 109.1330 14.36417673652611"
      },
      "geometry": {
        "type": "Point",
        "coordinates": [
          -137.7339558469059,
          -72.80705248506311
        ]
      }
    },
    {
      "type": "Feature",
      "properties": {
        "norad_id": 34678,
        "name": "COSMOS 2251 DEB",
        "group": "cosmos-2251-debris",
        "lat": -73.37964931579037,
        "lon": -116.25229466977528,
        "alt_km": 810.1332567003456,
        "timestamp": "2025-12-21T05:44:51.982288+00:00",
        "meta_object_name": "COSMOS 2251 DEB",
        "meta_object_id": "1993-036XY",
        "meta_epoch": "2025-12-20T18:41:52.747872",
        "meta_mean_motion": 14.30066309,
        "meta_eccentricity": 0.00246589,
        "meta_inclination": 74.0376,
        "meta_ra_of_asc_node": 351.0764,
        "meta_arg_of_pericenter": 37.6613,
        "meta_mean_anomaly": 18.542,
        "meta_ephemeris_type": 0,
        "meta_classification_type": "U",
        "meta_norad_cat_id": 34678,
        "meta_element_set_no": 999,
        "meta_rev_at_epoch": 87494,
        "meta_bstar": 2.2824328e-05,
        "meta_mean_motion_dot": 3.3e-07,
        "meta_mean_motion_ddot": 0,
        "tle_line1": "1 34678U 93036XY  25354.77908273  .00000033  00000+0  22824-4 0  9998",
        "tle_line2": "2 34678  74.0376 351.0764 0024658  37.6613  18.5420 14.30066309874948"
      },
      "geometry": {
        "type": "Point",
        "coordinates": [
          -116.25229466977528,
          -73.37964931579037
        ]
      }
    },
    {
      "type": "Feature",
      "properties": {
        "norad_id": 34680,
        "name": "COSMOS 2251 DEB",
        "group": "cosmos-2251-debris",
        "lat": 40.948055923342835,
        "lon": 128.00311095768723,
        "alt_km": 691.8312864606178,
        "timestamp": "2025-12-21T05:44:51.982300+00:00",
        "meta_object_name": "COSMOS 2251 DEB",
        "meta_object_id": "1993-036YA",
        "meta_epoch": "2025-12-20T14:51:11.131776",
        "meta_mean_motion": 14.60698323,
        "meta_eccentricity": 0.0006475,
        "meta_inclination": 74.0434,
        "meta_ra_of_asc_node": 114.813,
        "meta_arg_of_pericenter": 215.4086,
        "meta_mean_anomaly": 165.5002,
        "meta_ephemeris_type": 0,
        "meta_classification_type": "U",
        "meta_norad_cat_id": 34680,
        "meta_element_set_no": 999,
        "meta_rev_at_epoch": 88443,
        "meta_bstar": 0.00070479,
        "meta_mean_motion_dot": 3.407e-05,
        "meta_mean_motion_ddot": 0,
        "tle_line1": "1 34680U 93036YA  25354.61887884  .00003407  00000+0  70479-3 0  9994",
        "tle_line2": "2 34680  74.0434 114.8130 0006475 215.4086 165.5002 14.60698323884439"
      },
      "geometry": {
        "type": "Point",
        "coordinates": [
          128.00311095768723,
          40.948055923342835
        ]
      }
    }
  ]
}